#dP2023  5 31  0  0  0.00000000      96 __u+U ITR00 EXT  IAC
## 2264 259200.00000000   900.00000000 60095 0.0000000000000
+  119   C06C07C08C09C10C11C12C13C14C16C19C20C21C22C23C24C25
+        C26C27C28C29C30C32C33C34C35C36C37C38C39C40C41C42C43
+        C44C45C46E02E03E04E05E07E08E09E10E11E12E13E14E15E18
+        E19E21E24E25E26E27E30E31E33E34E36G01G02G03G04G05G06
+        G07G08G09G10G11G12G13G14G15G16G17G18G19G20G21G22G23
+        G24G25G26G27G28G29G30G31G32J02J03J04R01R02R03R04R05
+        R07R08R09R11R12R13R14R15R16R17R18R19R20R21R22R24R25
++         0  0  0  0  0  0  0  0  0  0  0  0  0  0  0  0  0
++         0  0  0  0  0  0  0  0  0  0  0  0  0  0  0  0  0
++         0  0  0  0  0  0  0  0  0  0  0  0  0  0  0  0  0
++         0  0  0  0  0  0  0  0  0  0  0  0  0  0  0  0  0
++         0  0  0  0  0  0  0  0  0  0  0  0  0  0  0  0  0
++         0  0  0  0  0  0  0  0  0  0  0  0  0  0  0  0  0
++         0  0  0  0  0  0  0  0  0  0  0  0  0  0  0  0  0
%c M  cc GPS ccc cccc cccc cccc cccc ccccc ccccc ccccc ccccc
%c cc cc ccc ccc cccc cccc cccc cccc ccccc ccccc ccccc ccccc
%f  0.0000000  0.000000000  0.00000000000  0.000000000000000
%f  0.0000000  0.000000000  0.00000000000  0.000000000000000
%i    0    0    0    0      0      0      0      0         0
%i    0    0    0    0      0      0      0      0         0
/* IAC                                ULTRA-RAPID PREDICTION
/* S/V CLOCKS ARE ALIGNED TO GNSS TIME                      
/* G:C1WC2W R:C1PC2P E:C1XC5X C:C2IC6I J:C1CC2S             
/* PCV:IGS20_2247 OL/AL:FES2004  NONE     YN ORB:CoN CLK:CoN
*  2023 05 31 23 15  0.00000000
PC06 -14310.840743  39158.455346   5139.268041   -184.911673
PC07  -2803.577113  31812.652304  27665.312481   -103.670034
PC08 -14344.713124  20783.016685 -33824.332851    471.728677
PC09  -7650.768350  38328.980382  15464.344835    588.100049
PC10   5695.878778  35155.886571  23256.183340    -73.429504
PC11  16015.319811 -13134.973092 -18632.202999    649.692191
PC12  13788.156970   7773.721700 -22953.627995    679.504593
PC13  -5684.377199  22488.011484 -35101.020237    286.803100
PC14  18011.639354  -3192.823108  21111.430131    341.658783
PC16 -16081.701677  38747.894480   2374.381532     59.300360
PC19 -10543.783267  11608.039402 -23055.766499   -916.963691
PC20 -21754.806030  -4158.327560 -16938.630815    532.680727
PC21  20695.963907  18745.616278     48.183858   -919.204674
PC22   7307.033957  21534.266202 -16196.454636   -461.972660
PC23   3936.609077 -17456.154574 -21405.029469   -944.128858
PC24  26692.945432  -2760.266391   7611.265613     10.468555
PC25  20768.216317 -15287.714087 -10647.220157    138.002301
PC26  17151.685049   9247.725013  19952.033729   -128.286805
PC27 -10446.105666 -16503.258477  19910.907510    148.487693
PC28    945.525582 -26919.914693   7287.289794    110.099674
PC29 -12343.133549  22225.619530  11494.856433    127.941991
PC30 -16460.459070   3262.692553  22280.823410     -0.744047
PC32 -20768.575511 -18623.160960     76.683189   -554.527360
PC33  10629.535195 -11590.318117  23058.910648   -888.648170
PC34  16586.065814  -4807.743334 -21942.052807    183.109026
PC35   -367.481708  27075.212885  -6686.746683    616.662678
PC36 -21641.563613  14509.943603  10025.089741   -409.089010
PC37 -15956.607240 -10306.173172 -20434.468264   -784.283393
PC38 -22025.212383  21968.531385 -28503.682728     82.103119
PC39 -17045.910414  38287.523094  -3386.935921     -3.134554
PC40  -5465.753841  27873.276814  31239.169849    -24.862321
PC41  -6663.399324 -21364.011058  16716.670242   -931.274291
PC42  22275.565739   5329.839206  16008.965718   -668.045100
PC43  12841.957218 -21596.344858 -12179.486464     24.066047
PC44  11118.317293  16258.818435 -19774.510136    124.063168
PC45  -3453.299456  17283.476331  21643.452413   -104.656476
PC46 -26941.828618   3862.570234  -6245.455275    -58.163296
PE02 -23584.773992 -13974.490289 -11185.334925     41.407645
PE03 -16054.868907 -20613.812429 -13891.230418    -21.937067
PE04  17601.394104    714.892358  23800.647532   -134.741298
PE05  -5030.675164 -28833.128538   4407.634341    -62.220130
PE07  -8955.580355  19864.428405 -20028.911526    -49.284574
PE08 -17517.679176  -1073.976730 -23827.133983    -91.871677
PE09   8942.909384 -19672.980696  20228.017065    -34.281662
PE10  23173.189779 -16453.890523  -8285.597745   -537.862188
PE11  19488.052322 -22184.275319   2175.302528   2090.400483
PE12  23090.340663  -8574.663899 -16441.402402   -561.671978
PE13 -19827.588126  21924.120653  -1443.537524    -19.218927
PE14  12153.895084 -17646.183247 -18072.739987    241.160764
PE15 -22949.548395   8325.209463  16730.001476    -26.019032
PE18   -338.268166  29074.563565   6119.255039    129.300314
PE19  14920.281302  22687.888187  11797.530592  -2403.777218
PE21   5980.277580  17737.783398  22929.295377   -532.364298
PE24  16777.347696 -11118.790111 -21711.389598   -129.874896
PE25  -5594.701196 -17717.082632 -23038.711977   -606.004170
PE26  -4378.075500  22318.240610 -18947.479847    120.758577
PE27 -16072.481219  11508.289794  22035.784697    -63.419097
PE30 -28532.640848  -1905.569601   7655.981130   -218.593451
PE31  28413.425827   1435.315122  -8165.526228   -524.942908
PE33  12508.002814  10062.555049 -24873.240586   -443.726582
PE34 -12636.438804  -9912.613431  24852.105408    -48.402495
PE36   5157.237498 -22512.398640  18515.675905    -64.498015
PG01 -12063.166738  20923.061226 -10971.392851    181.347560
PG02 -19348.573432  17790.288343   3820.450099   -590.373342
PG03  -3591.171072  14439.771441 -22135.666138   -285.844821
PG04  -1300.890599  24855.638490  -9094.944540     56.148364
PG05  19878.833152  -6677.409323  16194.045394   -129.353649
PG06  17481.249192   1550.132654 -19908.591033    586.914583
PG07   2541.581887  17471.494107  20162.123527    164.140194
PG08  -8705.913824  16907.946738  18302.116443   -125.182858
PG09   7160.201091  25547.504705    430.622278   -146.240637
PG10 -23285.758102 -11407.567177   6646.516355    -39.254258
PG11  22378.358749 -10856.421580  -9255.749567   -217.878002
PG12   7744.297936 -13297.737364 -21920.235478   -382.960352
PG13  13372.254157  -9299.634224  20758.500204    527.796739
PG14  21135.796041  13577.107521   8872.145442     75.678925
PG15   6467.997623 -18506.395665  17342.918193     44.681789
PG16 -22684.885686   1396.616172  13801.373239   -495.916286
PG17  13037.896607  17824.590217 -14251.874177    716.839009
PG18  -4686.680167 -15264.656005  21194.050202   -289.381566
PG19  14967.116448  10051.365303 -19830.154740    324.463373
PG20  24969.195684  -3045.693095   8253.375786    430.501886
PG21 -16903.681733  19829.753841   -600.075161    153.461020
PG22 -15336.558272  -6296.896785 -20334.127858    490.617933
PG23 -14253.160707 -15287.539504  16484.085927     29.007962
PG24  13400.939372 -21971.339097  -5950.563962   -208.942381
PG25  -5940.941704 -16586.124273 -20265.193117    446.737344
PG26 -26329.509110  -4082.273006   2235.050088    239.950148
PG27 -14131.165275   5017.125520  21653.279956     25.755654
PG28 -16701.878757  -3283.415964 -20410.021976     81.523982
PG29  -3054.712552 -26272.522871  -1867.728770   -601.345365
PG30  12401.223178   9987.894728  21385.977145   -513.878806
PG31 -22086.396774   7345.907256 -13374.273211   -217.228080
PG32 -15206.982912 -14948.515216 -15778.119725   -489.859826
PJ02 -28625.639619  21856.652081  26978.006399     -0.244730
PJ03 -31836.191113  26615.381120  12363.670588      5.398572
PJ04 -24023.203486  21229.179298 -22233.268658     94.949648
PR01  11733.155918  21029.126079  -8434.269501     58.547552
PR02  17522.753164  15551.063548  10062.184064    -22.762823
PR03  13412.024145    684.332351  21724.463576     78.867131
PR04   1896.977905 -13978.394927  21287.207108    189.395422
PR05 -10515.497211 -21319.818151   9292.981243    113.431104
PR07 -13020.604332    -55.635568 -21899.455353     57.065940
PR08  -1716.291972  14169.647875 -21071.536786    -71.061515
PR09 -21370.460279  -3385.254052 -13424.043777    123.290998
PR11 -15128.106865  10594.531982  17597.070709    -68.634290
PR12   5198.759119  10302.247589  22774.244224     27.739015
PR13  20137.871940   4345.132109  15030.716811    -35.640289
PR14  24780.677752  -5110.205992  -3311.132064     24.714310
PR15  14115.606274 -10755.635313 -18304.928341     88.952692
PR16  -4877.263468 -10179.688658 -22860.269557     15.151193
PR17  13843.563732 -11615.356655 -17983.970908    634.954190
PR18  11540.780973 -22512.203689  -3467.279084     84.328000
PR19   4751.218794 -22198.005559  11624.249341   -234.635052
PR20  -7855.084356  -7409.548048  23113.109593    -93.854234
PR21 -13962.141226  12906.596874  17009.840378    -11.771019
PR22 -12007.339543  22356.050215   2537.081362     79.601625
PR24   8860.992599   6670.920962 -22962.020247     -9.480263
PR25 -14580.606242  10786.284597  17945.551810     61.053123
EOF
